{
    "links": {
        "self": "http://www.neowsapp.com/rest/v1/neo/54097975?api_key=iIulBulltgU6a56xZRHN4H3l9WmuAYTsLGpBGhQ2"
    },
    "id": "54097975",
    "neo_reference_id": "54097975",
    "name": "(2020 XY)",
    "designation": "2020 XY",
    "nasa_jpl_url": "http://ssd.jpl.nasa.gov/sbdb.cgi?sstr=54097975",
    "absolute_magnitude_h": 25.635,
    "estimated_diameter": {
        "kilometers": {
            "estimated_diameter_min": 0.019840608,
            "estimated_diameter_max": 0.0443649482
        },
        "meters": {
            "estimated_diameter_min": 19.8406079985,
            "estimated_diameter_max": 44.3649481997
        },
        "miles": {
            "estimated_diameter_min": 0.0123283784,
            "estimated_diameter_max": 0.0275670922
        },
        "feet": {
            "estimated_diameter_min": 65.0938603459,
            "estimated_diameter_max": 145.5542966514
        }
    },
    "is_potentially_hazardous_asteroid": false,
    "close_approach_data": [
        {
            "close_approach_date": "2020-12-25",
            "close_approach_date_full": "2020-Dec-25 02:53",
            "epoch_date_close_approach": 1608864780000,
            "relative_velocity": {
                "kilometers_per_second": "5.6922540006",
                "kilometers_per_hour": "20492.1144020553",
                "miles_per_hour": "12733.0029738771"
            },
            "miss_distance": {
                "astronomical": "0.040299215",
                "lunar": "15.676394635",
                "kilometers": "6028676.72667205",
                "miles": "3746046.01149229"
            },
            "orbiting_body": "Earth"
        }
    ],
    "orbital_data": {
        "orbit_id": "2",
        "orbit_determination_date": "2020-12-08 05:24:05",
        "first_observation_date": "2020-12-05",
        "last_observation_date": "2020-12-08",
        "data_arc_in_days": 3,
        "observations_used": 21,
        "orbit_uncertainty": "8",
        "minimum_orbit_intersection": ".0356112",
        "jupiter_tisserand_invariant": "3.983",
        "epoch_osculation": "2459190.5",
        "eccentricity": ".4313252058982485",
        "semi_major_axis": "1.776442208414154",
        "inclination": "2.274278128714752",
        "ascending_node_longitude": "67.62291341084634",
        "orbital_period": "864.8186607840547",
        "perihelion_distance": "1.01021790710358",
        "perihelion_argument": "38.79392491599778",
        "aphelion_distance": "2.542666509724729",
        "perihelion_time": "2459219.123920350361",
        "mean_anomaly": "348.0846565951899",
        "mean_motion": ".4162722387068056",
        "equinox": "J2000",
        "orbit_class": {
            "orbit_class_type": "APO",
            "orbit_class_description": "Near-Earth asteroid orbits which cross the Earth’s orbit similar to that of 1862 Apollo",
            "orbit_class_range": "a (semi-major axis) > 1.0 AU; q (perihelion) < 1.017 AU"
        }
    },
    "is_sentry_object": false
}